#aV2014  4 17  0  0  0.00000000     288 DD+AD WGS84 FIT  NGA
## 1788 345600.00000000   300.00000000 56764 0.0000000000000
+   32     1  2  3  4  5  6  7  8  9 10 11 12 13 14 15 16 17
+         18 19 20 21 22 23 24 25 26 27 28 29 30 31 32  0  0
+          0  0  0  0  0  0  0  0  0  0  0  0  0  0  0  0  0
+          0  0  0  0  0  0  0  0  0  0  0  0  0  0  0  0  0
+          0  0  0  0  0  0  0  0  0  0  0  0  0  0  0  0  0
++         2  2  2  2  2  2  2  2  2  2  2  2  2  2  2  2  2
++         2  2  2  2  2  2  2  2  2  2  2  2  2  2  2  0  0
++         0  0  0  0  0  0  0  0  0  0  0  0  0  0  0  0  0
++         0  0  0  0  0  0  0  0  0  0  0  0  0  0  0  0  0
++         0  0  0  0  0  0  0  0  0  0  0  0  0  0  0  0  0
%c cc cc ccc ccc cccc cccc cccc cccc ccccc ccccc ccccc ccccc
%c cc cc ccc ccc cccc cccc cccc cccc ccccc ccccc ccccc ccccc
%f  0.0000000  0.000000000  0.00000000000  0.000000000000000
%f  0.0000000  0.000000000  0.00000000000  0.000000000000000
%i    0    0    0    0      0      0      0      0         0
%i    0    0    0    0      0      0      0      0         0
/*      NGA, ST. LOUIS,MO.                                  
/*   EPHEMERIS COMPUTED FROM  1 DAYS OF DATA                
/*   EPOCHA SMOOTHER                                       
/* CCCCCCCCCCCCCCCCCCCCCCCCCCCCCCCCCCCCCCCCCCCCCCCCCCCCCCCCC
*  2014  4 17 23 30  0.00000000
P  1  12526.310191 -22558.046855  -6024.619279      8.983036                    
V  1   6963.959534  -4228.553291  30590.487303      0.015255                    
P  2 -19969.515704   9683.122186 -13928.378455    490.304073                    
V  2   8574.544028 -16594.786024 -23847.821236      0.021547                    
P  3  13251.361095  -7948.467104  21060.895504    353.123390                    
V  3  14351.617321  24176.615119    247.643492      0.049549                    
P  4 -15896.818901  -4725.073208 -21092.790113      6.704303                    
V  4  15479.236850 -21052.900790  -6817.856536      0.002185                    
P  5 -24500.612194   3659.453452   9760.447699   -378.289770                    
V  5 -11916.323755  -4454.721297 -27971.645252      0.022259                    
P  6  25454.445150   6896.547551  -4213.427524   -155.772752                    
V  6  -5338.010011   1109.136256 -31464.753552     -0.019856                    
P  7    655.306447 -19708.117802  17698.646808    336.460322                    
V  7  15514.618279 -16284.964818 -19100.764347      0.042447                    
P  8  -7609.606319 -12649.768760  22169.677353     12.969215                    
V  8  20031.160389 -19230.463854  -4713.478150      0.002597                    
P  9 -10290.809179 -10313.093036  21667.933523    320.937072                    
V  9  18029.553293 -22405.743017  -2223.174555      0.028828                    
P 10 -24042.329602  -9335.767635  -7550.034884   -122.034054                    
V 10   9377.800145  -1328.323655 -29123.290912     -0.013190                    
P 11  12062.025837 -23060.173902   4234.539890   -481.556001                    
V 11   2764.378186   7456.414039  29586.968129     -0.032132                    
P 12 -10704.135941  12163.215464 -21057.795297    199.266970                    
V 12 -26011.459658  -5493.710790  10295.634673      0.024311                    
P 13  -4019.822638 -25774.499455  -4656.717120      8.677258                    
V 13   3817.778845   4903.646067 -31504.801731     -0.039200                    
P 14  14120.499751  19582.036033 -11021.556115    180.739670                    
V 14   2285.469851  14230.837569  27526.802510     -0.033554                    
P 15  -8463.856276  15946.546869  19333.125588   -174.487217                    
V 15 -11605.480650 -22027.848776  13339.471778     -0.021445                    
P 16  24689.352045  -1769.198044  10068.824804   -222.728818                    
V 16  12153.761238   3960.989536 -28624.480063      0.017736                    
P 17 -15057.503654 -18461.963230 -11716.927872    -85.909058                    
V 17  -3075.079848 -15018.248163  26798.671800     -0.031451                    
P 18  10261.848060  15927.862819  19180.779353    313.873222                    
V 18 -23435.100969  -1665.463691  13918.614761      0.023182                    
P 19  10514.628284 -13463.370480  20081.206983   -451.642522                    
V 19   8576.058467  24483.836672  12284.626207     -0.023057                    
P 20   9022.934365 -14630.788823 -20423.555251    180.672543                    
V 20  25481.505088   3211.296082   9107.151402      0.037105                    
P 21   3489.557354  18615.316076  19077.289429   -355.943937                    
V 21 -15675.437459  17175.866791 -14844.451186     -0.022259                    
P 22  21655.787860  11256.307314  10878.661859    227.606232                    
V 22 -13845.728925   1368.513706  26493.424098      0.027673                    
P 23   3301.820469 -21275.679189 -15172.858991    -13.239164                    
V 23   9455.536162  17392.301539 -22589.350621     -0.031657                    
P 24 -15552.462886  21442.646692  -1066.954854    -26.863270                    
V 24  -3209.868419   -787.331641  31689.680462     -0.007091                    
P 25   3342.535564  15214.239776 -21597.785662     22.011842                    
V 25 -26989.952036  -3377.891318  -6446.656846      0.009556                    
P 26 -14286.636580   3104.414120  21524.475831    105.629112                    
V 26  -8113.959270 -27715.053123  -1060.239797     -0.114193                    
P 27  15577.431311  -1341.553993  21474.704678    -19.469527                    
V 27   9797.993919  25441.389747  -5465.438470      0.009090                    
P 28 -18414.246442 -13491.944629  14292.143325    348.080847                    
V 28  16926.138773   2231.359724  24850.102651      0.028749                    
P 29   4249.612425  25498.564945  -6169.744945    526.173030                    
V 29  -4850.988968  -6660.148288 -30605.518315      0.027945                    
P 30  -7487.140899 -13941.892578  21319.844796     -1.468559                    
V 30  18792.682245 -19534.337127  -6193.424259     -0.032515                    
P 31  17627.767968   -312.161875 -19806.332715    334.224689                    
V 31 -15590.958436  20003.221484 -13780.512228      0.000135                    
P 32  20230.485045  -6691.741505 -15442.998060   -447.297849                    
V 32  18874.851331   7039.230769  22124.401959      0.076800                    
EOF
